[{"OBJECT_NAME":"STARLINK-1434","OBJECT_ID":"2020-035BH","EPOCH":"2026-03-09T05:47:35.213856","MEAN_MOTION":15.26724568,"ECCENTRICITY":0.00053438,"INCLINATION":53.0547,"RA_OF_ASC_NODE":22.1128,"ARG_OF_PERICENTER":88.04,"MEAN_ANOMALY":272.121,"EPHEMERIS_TYPE":0,"CLASSIFICATION_TYPE":"U","NORAD_CAT_ID":45712,"ELEMENT_SET_NO":999,"REV_AT_EPOCH":31932,"BSTAR":0.0020295208,"MEAN_MOTION_DOT":0.00054112,"MEAN_MOTION_DDOT":0},{"OBJECT_NAME":"STARLINK-35875","OBJECT_ID":"2025-299K","EPOCH":"2026-03-09T22:00:01.999584","MEAN_MOTION":15.2843404,"ECCENTRICITY":0.00017779,"INCLINATION":43.0001,"RA_OF_ASC_NODE":167.5617,"ARG_OF_PERICENTER":289.1685,"MEAN_ANOMALY":36.838,"EPHEMERIS_TYPE":0,"CLASSIFICATION_TYPE":"U","NORAD_CAT_ID":67111,"ELEMENT_SET_NO":999,"REV_AT_EPOCH":590,"BSTAR":-0.00049262906,"MEAN_MOTION_DOT":-0.00014153,"MEAN_MOTION_DDOT":0}]
